{
    "links": {
        "self": "http://www.neowsapp.com/rest/v1/neo/3761482?api_key=iIulBulltgU6a56xZRHN4H3l9WmuAYTsLGpBGhQ2"
    },
    "id": "3761482",
    "neo_reference_id": "3761482",
    "name": "(2016 UD26)",
    "designation": "2016 UD26",
    "nasa_jpl_url": "http://ssd.jpl.nasa.gov/sbdb.cgi?sstr=3761482",
    "absolute_magnitude_h": 24.3,
    "estimated_diameter": {
        "kilometers": {
            "estimated_diameter_min": 0.0366906138,
            "estimated_diameter_max": 0.0820427065
        },
        "meters": {
            "estimated_diameter_min": 36.6906137531,
            "estimated_diameter_max": 82.0427064882
        },
        "miles": {
            "estimated_diameter_min": 0.0227984834,
            "estimated_diameter_max": 0.0509789586
        },
        "feet": {
            "estimated_diameter_min": 120.3760332259,
            "estimated_diameter_max": 269.1689931548
        }
    },
    "is_potentially_hazardous_asteroid": false,
    "close_approach_data": [
        {
            "close_approach_date": "2012-11-21",
            "close_approach_date_full": "2012-Nov-21 07:12",
            "epoch_date_close_approach": 1353481920000,
            "relative_velocity": {
                "kilometers_per_second": "24.57774261",
                "kilometers_per_hour": "88479.8733960328",
                "miles_per_hour": "54977.9524443294"
            },
            "miss_distance": {
                "astronomical": "0.4692767357",
                "lunar": "182.5486501873",
                "kilometers": "70202800.101272959",
                "miles": "43621997.2040424742"
            },
            "orbiting_body": "Earth"
        },
        {
            "close_approach_date": "2016-10-14",
            "close_approach_date_full": "2016-Oct-14 11:30",
            "epoch_date_close_approach": 1476444600000,
            "relative_velocity": {
                "kilometers_per_second": "10.6749442354",
                "kilometers_per_hour": "38429.799247417",
                "miles_per_hour": "23878.7827601519"
            },
            "miss_distance": {
                "astronomical": "0.015122074",
                "lunar": "5.882486786",
                "kilometers": "2262230.06038238",
                "miles": "1405684.577061644"
            },
            "orbiting_body": "Earth"
        }
    ],
    "orbital_data": {
        "orbit_id": "5",
        "orbit_determination_date": "2017-04-06 08:22:49",
        "first_observation_date": "2016-10-22",
        "last_observation_date": "2016-11-10",
        "data_arc_in_days": 19,
        "observations_used": 29,
        "orbit_uncertainty": "7",
        "minimum_orbit_intersection": ".0138881",
        "jupiter_tisserand_invariant": "3.174",
        "epoch_osculation": "2459000.5",
        "eccentricity": ".6172717902766679",
        "semi_major_axis": "2.49246288430748",
        "inclination": "4.289930445974719",
        "ascending_node_longitude": "9.862570151975655",
        "orbital_period": "1437.280312248283",
        "perihelion_distance": ".9539358575128544",
        "perihelion_argument": "344.0755085336726",
        "aphelion_distance": "4.030989911102105",
        "perihelion_time": "2459090.939898803905",
        "mean_anomaly": "337.3472416675103",
        "mean_motion": ".250473061470428",
        "equinox": "J2000",
        "orbit_class": {
            "orbit_class_type": "APO",
            "orbit_class_description": "Near-Earth asteroid orbits which cross the Earth’s orbit similar to that of 1862 Apollo",
            "orbit_class_range": "a (semi-major axis) > 1.0 AU; q (perihelion) < 1.017 AU"
        }
    },
    "is_sentry_object": false
}